IRIDIUM 116             
1 43072U 17083C   23283.61846009  .00000013  00000+0 -25515-5 0  9994
2 43072  86.4031  11.8239 0002245  98.8129 261.3321 14.34219172303620
IRIDIUM 130             
1 43073U 17083D   23283.51697296  .00000678  00000+0  23505-3 0  9997
2 43073  86.4038  12.0459 0002161  91.9185 268.2258 14.34222832303552
IRIDIUM 151             
1 43074U 17083E   23283.63114507  .00000023  00000+0  12628-5 0  9990
2 43074  86.4030  11.8538 0002353  95.2798 264.8667 14.34216959303593
IRIDIUM 134             
1 43075U 17083F   23283.73896935  .00000714  00000+0  24776-3 0  9996
2 43075  86.4033  11.8035 0001963  93.9102 266.2318 14.34220314303576
IRIDIUM 137             
1 43076U 17083G   23283.82142375  .00000662  00000+0  22936-3 0  9997
2 43076  86.4035  11.8425 0002346 100.8446 259.3014 14.34217665303657
IRIDIUM 141             
1 43077U 17083H   23283.60577175  .00000666  00000+0  23059-3 0  9995
2 43077  86.4029  11.8184 0002371  90.0514 270.0954 14.34224236303629
IRIDIUM 153             
1 43078U 17083J   23284.25563555  .00000597  00000+0  20622-3 0  9991
2 43078  86.4001 340.0220 0002215  84.2036 275.9412 14.34221628304827
IRIDIUM 131             
1 43079U 17083K   23284.29077258  .00000663  00000+0  22976-3 0  9994
2 43079  86.4035  11.6522 0002185  92.0954 268.0492 14.34215597303652
